[{"OBJECT_NAME":"HXMT (HUIYAN)","OBJECT_ID":"2017-034A","EPOCH":"2026-03-28T04:57:29.047680","MEAN_MOTION":15.1769264,"ECCENTRICITY":0.00319635,"INCLINATION":43.014,"RA_OF_ASC_NODE":273.7089,"ARG_OF_PERICENTER":349.2571,"MEAN_ANOMALY":10.7591,"EPHEMERIS_TYPE":0,"CLASSIFICATION_TYPE":"U","NORAD_CAT_ID":42758,"ELEMENT_SET_NO":999,"REV_AT_EPOCH":48535,"BSTAR":0.00028072994,"MEAN_MOTION_DOT":5.596e-5,"MEAN_MOTION_DDOT":0},{"OBJECT_NAME":"SAOCOM 1A","OBJECT_ID":"2018-076A","EPOCH":"2026-03-28T06:12:06.020928","MEAN_MOTION":14.82157513,"ECCENTRICITY":0.0001442,"INCLINATION":97.8907,"RA_OF_ASC_NODE":275.1687,"ARG_OF_PERICENTER":86.04,"MEAN_ANOMALY":274.0978,"EPHEMERIS_TYPE":0,"CLASSIFICATION_TYPE":"U","NORAD_CAT_ID":43641,"ELEMENT_SET_NO":999,"REV_AT_EPOCH":40411,"BSTAR":-2.266301e-6,"MEAN_MOTION_DOT":-7.0e-7,"MEAN_MOTION_DDOT":0},{"OBJECT_NAME":"H-2A R/B","OBJECT_ID":"2018-084L","EPOCH":"2026-03-28T03:57:45.040032","MEAN_MOTION":15.4211605,"ECCENTRICITY":0.0023805,"INCLINATION":98.8712,"RA_OF_ASC_NODE":308.5108,"ARG_OF_PERICENTER":320.9414,"MEAN_ANOMALY":39.0109,"EPHEMERIS_TYPE":0,"CLASSIFICATION_TYPE":"U","NORAD_CAT_ID":43682,"ELEMENT_SET_NO":999,"REV_AT_EPOCH":40862,"BSTAR":0.00050864364,"MEAN_MOTION_DOT":0.00021909,"MEAN_MOTION_DDOT":0},{"OBJECT_NAME":"SAOCOM 1B","OBJECT_ID":"2020-059A","EPOCH":"2026-03-28T05:19:51.835872","MEAN_MOTION":14.82156397,"ECCENTRICITY":0.00015393,"INCLINATION":97.8908,"RA_OF_ASC_NODE":274.2309,"ARG_OF_PERICENTER":86.9978,"MEAN_ANOMALY":273.1412,"EPHEMERIS_TYPE":0,"CLASSIFICATION_TYPE":"U","NORAD_CAT_ID":46265,"ELEMENT_SET_NO":999,"REV_AT_EPOCH":30149,"BSTAR":9.443921e-5,"MEAN_MOTION_DOT":7.0e-6,"MEAN_MOTION_DDOT":0},{"OBJECT_NAME":"CSS (TIANHE)","OBJECT_ID":"2021-035A","EPOCH":"2026-03-28T04:53:00.711744","MEAN_MOTION":15.61574783,"ECCENTRICITY":0.00040982,"INCLINATION":41.4668,"RA_OF_ASC_NODE":95.4304,"ARG_OF_PERICENTER":43.6624,"MEAN_ANOMALY":316.4539,"EPHEMERIS_TYPE":0,"CLASSIFICATION_TYPE":"U","NORAD_CAT_ID":48274,"ELEMENT_SET_NO":999,"REV_AT_EPOCH":28050,"BSTAR":0.00020558652,"MEAN_MOTION_DOT":0.00017871,"MEAN_MOTION_DDOT":0},{"OBJECT_NAME":"COSMOS 2550","OBJECT_ID":"2021-056A","EPOCH":"2026-03-28T05:33:55.969056","MEAN_MOTION":15.33829782,"ECCENTRICITY":0.00084216,"INCLINATION":67.1425,"RA_OF_ASC_NODE":344.7945,"ARG_OF_PERICENTER":269.6133,"MEAN_ANOMALY":90.4056,"EPHEMERIS_TYPE":0,"CLASSIFICATION_TYPE":"U","NORAD_CAT_ID":48865,"ELEMENT_SET_NO":999,"REV_AT_EPOCH":26630,"BSTAR":1.60538e-7,"MEAN_MOTION_DOT":-1.86e-6,"MEAN_MOTION_DDOT":0},{"OBJECT_NAME":"CZ-2C R/B","OBJECT_ID":"2022-058K","EPOCH":"2026-03-28T02:02:14.052768","MEAN_MOTION":15.55565051,"ECCENTRICITY":0.00415014,"INCLINATION":50.1874,"RA_OF_ASC_NODE":223.5679,"ARG_OF_PERICENTER":279.7011,"MEAN_ANOMALY":79.9274,"EPHEMERIS_TYPE":0,"CLASSIFICATION_TYPE":"U","NORAD_CAT_ID":52794,"ELEMENT_SET_NO":999,"REV_AT_EPOCH":21299,"BSTAR":0.00054664922,"MEAN_MOTION_DOT":0.00039381,"MEAN_MOTION_DDOT":0},{"OBJECT_NAME":"CZ-2C R/B","OBJECT_ID":"2022-132E","EPOCH":"2026-03-28T06:17:02.567328","MEAN_MOTION":15.63589754,"ECCENTRICITY":0.00177881,"INCLINATION":97.2961,"RA_OF_ASC_NODE":91.1671,"ARG_OF_PERICENTER":30.7941,"MEAN_ANOMALY":329.4358,"EPHEMERIS_TYPE":0,"CLASSIFICATION_TYPE":"U","NORAD_CAT_ID":54039,"ELEMENT_SET_NO":999,"REV_AT_EPOCH":19327,"BSTAR":0.00054534549,"MEAN_MOTION_DOT":0.00051097,"MEAN_MOTION_DDOT":0},{"OBJECT_NAME":"GSLV R/B","OBJECT_ID":"2022-138AN","EPOCH":"2026-03-28T05:44:13.934688","MEAN_MOTION":14.96890474,"ECCENTRICITY":0.00240336,"INCLINATION":87.3863,"RA_OF_ASC_NODE":160.1529,"ARG_OF_PERICENTER":85.6352,"MEAN_ANOMALY":274.7625,"EPHEMERIS_TYPE":0,"CLASSIFICATION_TYPE":"U","NORAD_CAT_ID":54149,"ELEMENT_SET_NO":999,"REV_AT_EPOCH":18670,"BSTAR":0.00020801423,"MEAN_MOTION_DOT":2.428e-5,"MEAN_MOTION_DDOT":0},{"OBJECT_NAME":"XRISM","OBJECT_ID":"2023-137A","EPOCH":"2026-03-28T06:16:57.248544","MEAN_MOTION":15.11709896,"ECCENTRICITY":0.00079431,"INCLINATION":31.0015,"RA_OF_ASC_NODE":163.5177,"ARG_OF_PERICENTER":226.1658,"MEAN_ANOMALY":133.8324,"EPHEMERIS_TYPE":0,"CLASSIFICATION_TYPE":"U","NORAD_CAT_ID":57800,"ELEMENT_SET_NO":999,"REV_AT_EPOCH":14060,"BSTAR":0.00036021451,"MEAN_MOTION_DOT":6.39e-5,"MEAN_MOTION_DDOT":0},{"OBJECT_NAME":"ACS3","OBJECT_ID":"2024-077B","EPOCH":"2026-03-28T05:07:12.600192","MEAN_MOTION":13.90444169,"ECCENTRICITY":0.00723583,"INCLINATION":97.1971,"RA_OF_ASC_NODE":24.1612,"ARG_OF_PERICENTER":34.2096,"MEAN_ANOMALY":326.37,"EPHEMERIS_TYPE":0,"CLASSIFICATION_TYPE":"U","NORAD_CAT_ID":59588,"ELEMENT_SET_NO":999,"REV_AT_EPOCH":9677,"BSTAR":0.018935004,"MEAN_MOTION_DOT":0.00024069,"MEAN_MOTION_DDOT":0},{"OBJECT_NAME":"SZ-21 MODULE","OBJECT_ID":"2025-246C","EPOCH":"2026-03-28T06:35:15.339840","MEAN_MOTION":15.69967006,"ECCENTRICITY":0.00015681,"INCLINATION":41.4743,"RA_OF_ASC_NODE":88.8326,"ARG_OF_PERICENTER":210.3682,"MEAN_ANOMALY":149.7069,"EPHEMERIS_TYPE":0,"CLASSIFICATION_TYPE":"U","NORAD_CAT_ID":66515,"ELEMENT_SET_NO":999,"REV_AT_EPOCH":2099,"BSTAR":0.00034891189,"MEAN_MOTION_DOT":0.00043062,"MEAN_MOTION_DDOT":0}]
