HXMT (HUIYAN)           
1 42758U 17034A   26087.20658620  .00005596  00000+0  28073-3 0  9990
2 42758  43.0140 273.7089 0031963 349.2571  10.7591 15.17692640485358
SAOCOM 1A               
1 43641U 18076A   26087.25840302 -.00000070  00000+0 -22663-5 0  9999
2 43641  97.8907 275.1687 0001442  86.0400 274.0978 14.82157513404119
H-2A R/B                
1 43682U 18084L   26087.16510463  .00021909  00000+0  50864-3 0  9999
2 43682  98.8712 308.5108 0023805 320.9414  39.0109 15.42116050408623
SAOCOM 1B               
1 46265U 20059A   26087.22212773  .00000700  00000+0  94439-4 0  9997
2 46265  97.8908 274.2309 0001539  86.9978 273.1412 14.82156397301491
CSS (TIANHE)            
1 48274U 21035A   26087.20348046  .00017871  00000+0  20559-3 0  9993
2 48274  41.4668  95.4304 0004098  43.6624 316.4539 15.61574783280500
COSMOS 2550             
1 48865U 21056A   26087.23189779 -.00000186  00000+0  16054-6 0  9991
2 48865  67.1425 344.7945 0008421 269.6133  90.4056 15.33829782266308
CZ-2C R/B               
1 52794U 22058K   26087.08488487  .00039381  00000+0  54665-3 0  9996
2 52794  50.1874 223.5679 0041501 279.7011  79.9274 15.55565051212995
CZ-2C R/B               
1 54039U 22132E   26087.26183527  .00051097  00000+0  54535-3 0  9994
2 54039  97.2961  91.1671 0017788  30.7941 329.4358 15.63589754193276
GSLV R/B                
1 54149U 22138AN  26087.23905017  .00002428  00000+0  20801-3 0  9998
2 54149  87.3863 160.1529 0024033  85.6352 274.7625 14.96890474186702
XRISM                   
1 57800U 23137A   26087.26177371  .00006390  00000+0  36021-3 0  9995
2 57800  31.0015 163.5177 0007943 226.1658 133.8324 15.11709896140607
ACS3                    
1 59588U 24077B   26087.21334028  .00024069  00000+0  18935-1 0  9998
2 59588  97.1971  24.1612 0072358  34.2096 326.3700 13.90444169 96777
SZ-21 MODULE            
1 66515U 25246C   26087.27448310  .00043062  00000+0  34891-3 0  9996
2 66515  41.4743  88.8326 0001568 210.3682 149.7069 15.69967006 20990
